OBJECT_NAME,OBJECT_ID,EPOCH,MEAN_MOTION,ECCENTRICITY,INCLINATION,RA_OF_ASC_NODE,ARG_OF_PERICENTER,MEAN_ANOMALY,EPHEMERIS_TYPE,CLASSIFICATION_TYPE,NORAD_CAT_ID,ELEMENT_SET_NO,REV_AT_EPOCH,BSTAR,MEAN_MOTION_DOT,MEAN_MOTION_DDOT
INTELSAT 23 (IS-23),2012-057A,2026-06-30T03:33:30.722400,1.00275203,.0000496,0.0187,52.2391,72.4763,153.8978,0,U,38867,999,5008,0,-.274E-5,0
FM-6,2013-058A,2026-06-30T12:18:42.843168,1.00271303,.00018206,0.0208,53.0281,128.0985,165.8183,0,U,39360,999,4620,0,-.5E-7,0
INTELSAT 30 (IS-30),2014-062A,2026-06-29T20:11:52.505088,1.00272441,.00016035,0.0193,43.7532,346.9405,95.1444,0,U,40271,999,692,0,-.14E-5,0
DIRECTV 14,2014-078B,2026-06-30T14:20:21.889248,1.00270222,.00004056,0.0112,26.7471,352.9297,14.8397,0,U,40333,999,4217,0,-.115E-5,0
DIRECTV 15,2015-026A,2026-06-30T14:22:23.670912,1.00270498,.00005516,0.0152,44.0588,7.8357,339.4992,0,U,40663,999,4059,0,-.92E-6,0
SKY MEXICO-1,2015-026B,2026-06-30T11:59:28.953024,1.00271008,.00026558,0.0187,20.1085,96.9748,262.5531,0,U,40664,999,4058,0,-.224E-5,0
INTELSAT 34 (IS-34),2015-039A,2026-06-29T20:37:35.920128,1.00271809,.00006886,0.0117,347.8152,41.6202,142.4086,0,U,40874,999,3976,0,-.274E-5,0
INTELSAT 31 (IS-31),2016-035A,2026-06-30T14:17:20.318784,1.00270318,.00006345,0.0212,276.1853,9.4333,112.3227,0,U,41581,999,3681,0,-.14E-5,0
INTELSAT 36 (IS-36),2016-053A,2026-06-30T12:41:27.506112,1.00270540,.00021589,0.0102,13.2508,336.7967,187.4165,0,U,41747,999,3609,0,-.14E-6,0
INTELSAT 32E (IS-32E),2017-007B,2026-06-29T12:12:28.637856,1.00268307,.0000889,0.0243,13.6582,344.8527,59.0307,0,U,41945,999,3434,0,0,0
INTELSAT 35E (IS-35E),2017-041A,2026-06-30T09:56:33.414432,1.00267734,.00023447,0.0224,21.3559,77.7802,293.9857,0,U,42818,999,3294,0,0,0
INTELSAT 37E (IS-37E),2017-059A,2026-06-30T10:34:10.106400,1.00268452,.00029022,0.0248,31.0347,71.9734,316.0377,0,U,42950,999,3219,0,0,0
AZERSPACE 2 (IS-38),2018-074A,2026-06-30T12:34:50.639808,1.00270037,.00016602,0.0251,26.8981,75.4056,50.1070,0,U,43632,999,2858,0,0,0
HORIZONS-3E,2018-074B,2026-06-29T16:38:15.326880,1.00271768,.00004557,0.0212,193.1190,97.6770,45.5517,0,U,43633,999,2846,0,-.19E-6,0
AT&T T-16,2019-034A,2026-06-30T14:20:21.888384,1.00269159,.00003681,0.0167,60.3335,271.7919,60.7611,0,U,44333,999,2576,0,-.104E-5,0
INTELSAT 39 (IS-39),2019-049B,2026-06-29T21:01:31.354176,1.00271871,.00007859,0.0235,15.0802,336.7209,303.4894,0,U,44476,999,2525,0,0,0
GALAXY 30 (G-30),2020-056C,2026-06-30T14:34:24.550176,1.00272760,.00022594,0.0177,29.8448,67.0191,275.3998,0,U,46114,999,2142,0,.47E-6,0
GALAXY 33 (G-33),2022-128A,2026-06-30T14:40:18.179328,1.00272795,.0002073,0.0146,13.8640,83.0382,268.8539,0,U,54026,999,1387,0,.89E-6,0
GALAXY 34 (G-34),2022-128B,2026-06-29T23:46:31.594080,1.00272992,.00017844,0.0271,10.7424,104.0312,30.9304,0,U,54027,999,1404,0,0,0
GALAXY 31 (G-31),2022-153A,2026-06-30T14:32:23.830368,1.00271858,.00016198,0.0165,54.1436,41.2247,280.3926,0,U,54243,999,726,0,.24E-6,0
GALAXY 32 (G-32),2022-153B,2026-06-29T13:41:26.830752,1.00271332,.00020175,0.0109,21.8148,29.7185,340.4784,0,U,54244,999,1326,0,-.163E-5,0
GALAXY 35 (G-35),2022-170A,2026-06-30T14:16:19.801632,1.00268564,.00021873,0.0240,48.7434,51.3617,299.5220,0,U,54741,999,1302,0,0,0
GALAXY 36 (G-36),2022-170B,2026-06-30T11:56:29.240160,1.00270887,.00028776,0.0060,341.0330,112.3690,275.2813,0,U,54742,999,1290,0,-.174E-5,0
GALAXY 37 (G-37),2023-112A,2026-06-30T14:35:25.300608,1.00271230,.00021465,0.0157,327.7805,131.4031,271.3455,0,U,57493,999,1067,0,.59E-6,0
